CCSDS_OMM_VERS = 2.0
CREATION_DATE  = 
ORIGINATOR     = 

OBJECT_NAME    = STARLINK-37156
OBJECT_ID      = 2026-055B
CENTER_NAME    = EARTH
REF_FRAME      = TEME
TIME_SYSTEM    = UTC
MEAN_ELEMENT_THEORY = SGP/SGP4

EPOCH          = 2026-04-02T06:00:02.999808
MEAN_MOTION    = 15.84845630
ECCENTRICITY   = .00008556
INCLINATION    = 53.1580
RA_OF_ASC_NODE = 219.2358
ARG_OF_PERICENTER = 80.1892
MEAN_ANOMALY   = 64.7025

EPHEMERIS_TYPE = 0
CLASSIFICATION_TYPE = U
NORAD_CAT_ID   = 68263
ELEMENT_SET_NO = 999
REV_AT_EPOCH   = 342
BSTAR          = -.54004681E-2
MEAN_MOTION_DOT = -.1150738E-1
MEAN_MOTION_DDOT = 0

CCSDS_OMM_VERS = 2.0
CREATION_DATE  = 
ORIGINATOR     = 

OBJECT_NAME    = STARLINK-37163
OBJECT_ID      = 2026-055C
CENTER_NAME    = EARTH
REF_FRAME      = TEME
TIME_SYSTEM    = UTC
MEAN_ELEMENT_THEORY = SGP/SGP4

EPOCH          = 2026-04-02T06:00:02.999808
MEAN_MOTION    = 15.84904550
ECCENTRICITY   = .00008308
INCLINATION    = 53.1581
RA_OF_ASC_NODE = 219.2173
ARG_OF_PERICENTER = 80.4683
MEAN_ANOMALY   = 72.8976

EPHEMERIS_TYPE = 0
CLASSIFICATION_TYPE = U
NORAD_CAT_ID   = 68264
ELEMENT_SET_NO = 999
REV_AT_EPOCH   = 342
BSTAR          = -.54820077E-2
MEAN_MOTION_DOT = -.1169249E-1
MEAN_MOTION_DDOT = 0

CCSDS_OMM_VERS = 2.0
CREATION_DATE  = 
ORIGINATOR     = 

OBJECT_NAME    = STARLINK-37133
OBJECT_ID      = 2026-055D
CENTER_NAME    = EARTH
REF_FRAME      = TEME
TIME_SYSTEM    = UTC
MEAN_ELEMENT_THEORY = SGP/SGP4

EPOCH          = 2026-04-02T06:00:02.999808
MEAN_MOTION    = 15.84867313
ECCENTRICITY   = .00008347
INCLINATION    = 53.1581
RA_OF_ASC_NODE = 219.2264
ARG_OF_PERICENTER = 80.9874
MEAN_ANOMALY   = 68.1784

EPHEMERIS_TYPE = 0
CLASSIFICATION_TYPE = U
NORAD_CAT_ID   = 68265
ELEMENT_SET_NO = 999
REV_AT_EPOCH   = 342
BSTAR          = -.54313046E-2
MEAN_MOTION_DOT = -.11577E-1
MEAN_MOTION_DDOT = 0

CCSDS_OMM_VERS = 2.0
CREATION_DATE  = 
ORIGINATOR     = 

OBJECT_NAME    = STARLINK-37042
OBJECT_ID      = 2026-055E
CENTER_NAME    = EARTH
REF_FRAME      = TEME
TIME_SYSTEM    = UTC
MEAN_ELEMENT_THEORY = SGP/SGP4

EPOCH          = 2026-04-02T06:00:02.999808
MEAN_MOTION    = 15.84867685
ECCENTRICITY   = .00009172
INCLINATION    = 53.1579
RA_OF_ASC_NODE = 219.2080
ARG_OF_PERICENTER = 76.5080
MEAN_ANOMALY   = 81.5424

EPHEMERIS_TYPE = 0
CLASSIFICATION_TYPE = U
NORAD_CAT_ID   = 68266
ELEMENT_SET_NO = 999
REV_AT_EPOCH   = 342
BSTAR          = -.55242288E-2
MEAN_MOTION_DOT = -.1175453E-1
MEAN_MOTION_DDOT = 0

CCSDS_OMM_VERS = 2.0
CREATION_DATE  = 
ORIGINATOR     = 

OBJECT_NAME    = STARLINK-37103
OBJECT_ID      = 2026-055F
CENTER_NAME    = EARTH
REF_FRAME      = TEME
TIME_SYSTEM    = UTC
MEAN_ELEMENT_THEORY = SGP/SGP4

EPOCH          = 2026-04-02T06:00:02.999808
MEAN_MOTION    = 15.84874895
ECCENTRICITY   = .00009119
INCLINATION    = 53.1583
RA_OF_ASC_NODE = 219.1988
ARG_OF_PERICENTER = 78.6336
MEAN_ANOMALY   = 83.8241

EPHEMERIS_TYPE = 0
CLASSIFICATION_TYPE = U
NORAD_CAT_ID   = 68267
ELEMENT_SET_NO = 999
REV_AT_EPOCH   = 342
BSTAR          = -.55609127E-2
MEAN_MOTION_DOT = -.1182786E-1
MEAN_MOTION_DDOT = 0

CCSDS_OMM_VERS = 2.0
CREATION_DATE  = 
ORIGINATOR     = 

OBJECT_NAME    = STARLINK-36999
OBJECT_ID      = 2026-055G
CENTER_NAME    = EARTH
REF_FRAME      = TEME
TIME_SYSTEM    = UTC
MEAN_ELEMENT_THEORY = SGP/SGP4

EPOCH          = 2026-04-02T06:00:02.999808
MEAN_MOTION    = 15.84913218
ECCENTRICITY   = .00009055
INCLINATION    = 53.1580
RA_OF_ASC_NODE = 219.1900
ARG_OF_PERICENTER = 79.1296
MEAN_ANOMALY   = 87.5630

EPHEMERIS_TYPE = 0
CLASSIFICATION_TYPE = U
NORAD_CAT_ID   = 68268
ELEMENT_SET_NO = 999
REV_AT_EPOCH   = 342
BSTAR          = -.55935074E-2
MEAN_MOTION_DOT = -.1190942E-1
MEAN_MOTION_DDOT = 0

CCSDS_OMM_VERS = 2.0
CREATION_DATE  = 
ORIGINATOR     = 

OBJECT_NAME    = STARLINK-36962
OBJECT_ID      = 2026-055H
CENTER_NAME    = EARTH
REF_FRAME      = TEME
TIME_SYSTEM    = UTC
MEAN_ELEMENT_THEORY = SGP/SGP4

EPOCH          = 2026-04-02T06:00:02.999808
MEAN_MOTION    = 15.84952897
ECCENTRICITY   = .00009725
INCLINATION    = 53.1580
RA_OF_ASC_NODE = 219.1810
ARG_OF_PERICENTER = 77.1040
MEAN_ANOMALY   = 93.9229

EPHEMERIS_TYPE = 0
CLASSIFICATION_TYPE = U
NORAD_CAT_ID   = 68269
ELEMENT_SET_NO = 999
REV_AT_EPOCH   = 342
BSTAR          = -.57772668E-2
MEAN_MOTION_DOT = -.1227835E-1
MEAN_MOTION_DDOT = 0

CCSDS_OMM_VERS = 2.0
CREATION_DATE  = 
ORIGINATOR     = 

OBJECT_NAME    = STARLINK-37028
OBJECT_ID      = 2026-055J
CENTER_NAME    = EARTH
REF_FRAME      = TEME
TIME_SYSTEM    = UTC
MEAN_ELEMENT_THEORY = SGP/SGP4

EPOCH          = 2026-04-02T06:00:02.999808
MEAN_MOTION    = 15.84722583
ECCENTRICITY   = .00008567
INCLINATION    = 53.1581
RA_OF_ASC_NODE = 219.1592
ARG_OF_PERICENTER = 88.1907
MEAN_ANOMALY   = 93.1082

EPHEMERIS_TYPE = 0
CLASSIFICATION_TYPE = U
NORAD_CAT_ID   = 68270
ELEMENT_SET_NO = 999
REV_AT_EPOCH   = 342
BSTAR          = -.64633467E-2
MEAN_MOTION_DOT = -.1342147E-1
MEAN_MOTION_DDOT = 0

CCSDS_OMM_VERS = 2.0
CREATION_DATE  = 
ORIGINATOR     = 

OBJECT_NAME    = STARLINK-37029
OBJECT_ID      = 2026-055K
CENTER_NAME    = EARTH
REF_FRAME      = TEME
TIME_SYSTEM    = UTC
MEAN_ELEMENT_THEORY = SGP/SGP4

EPOCH          = 2026-04-02T06:00:02.999808
MEAN_MOTION    = 15.84744003
ECCENTRICITY   = .00009512
INCLINATION    = 53.1580
RA_OF_ASC_NODE = 219.1688
ARG_OF_PERICENTER = 81.4067
MEAN_ANOMALY   = 95.4884

EPHEMERIS_TYPE = 0
CLASSIFICATION_TYPE = U
NORAD_CAT_ID   = 68271
ELEMENT_SET_NO = 999
REV_AT_EPOCH   = 342
BSTAR          = -.64875482E-2
MEAN_MOTION_DOT = -.1347833E-1
MEAN_MOTION_DDOT = 0

CCSDS_OMM_VERS = 2.0
CREATION_DATE  = 
ORIGINATOR     = 

OBJECT_NAME    = STARLINK-36974
OBJECT_ID      = 2026-055L
CENTER_NAME    = EARTH
REF_FRAME      = TEME
TIME_SYSTEM    = UTC
MEAN_ELEMENT_THEORY = SGP/SGP4

EPOCH          = 2026-04-02T06:00:02.999808
MEAN_MOTION    = 15.84634695
ECCENTRICITY   = .00008719
INCLINATION    = 53.1580
RA_OF_ASC_NODE = 219.1494
ARG_OF_PERICENTER = 79.9111
MEAN_ANOMALY   = 106.1954

EPHEMERIS_TYPE = 0
CLASSIFICATION_TYPE = U
NORAD_CAT_ID   = 68272
ELEMENT_SET_NO = 999
REV_AT_EPOCH   = 342
BSTAR          = -.66743728E-2
MEAN_MOTION_DOT = -.137521E-1
MEAN_MOTION_DDOT = 0

CCSDS_OMM_VERS = 2.0
CREATION_DATE  = 
ORIGINATOR     = 

OBJECT_NAME    = STARLINK-37019
OBJECT_ID      = 2026-055M
CENTER_NAME    = EARTH
REF_FRAME      = TEME
TIME_SYSTEM    = UTC
MEAN_ELEMENT_THEORY = SGP/SGP4

EPOCH          = 2026-04-02T06:00:02.999808
MEAN_MOTION    = 15.84658715
ECCENTRICITY   = .00009247
INCLINATION    = 53.1581
RA_OF_ASC_NODE = 219.1401
ARG_OF_PERICENTER = 73.2516
MEAN_ANOMALY   = 117.0374

EPHEMERIS_TYPE = 0
CLASSIFICATION_TYPE = U
NORAD_CAT_ID   = 68273
ELEMENT_SET_NO = 999
REV_AT_EPOCH   = 342
BSTAR          = -.66719285E-2
MEAN_MOTION_DOT = -.1376206E-1
MEAN_MOTION_DDOT = 0

CCSDS_OMM_VERS = 2.0
CREATION_DATE  = 
ORIGINATOR     = 

OBJECT_NAME    = STARLINK-37129
OBJECT_ID      = 2026-055N
CENTER_NAME    = EARTH
REF_FRAME      = TEME
TIME_SYSTEM    = UTC
MEAN_ELEMENT_THEORY = SGP/SGP4

EPOCH          = 2026-04-02T06:00:02.999808
MEAN_MOTION    = 15.84653582
ECCENTRICITY   = .000095
INCLINATION    = 53.1579
RA_OF_ASC_NODE = 219.1312
ARG_OF_PERICENTER = 81.2329
MEAN_ANOMALY   = 113.4395

EPHEMERIS_TYPE = 0
CLASSIFICATION_TYPE = U
NORAD_CAT_ID   = 68274
ELEMENT_SET_NO = 999
REV_AT_EPOCH   = 342
BSTAR          = -.67547525E-2
MEAN_MOTION_DOT = -.1390779E-1
MEAN_MOTION_DDOT = 0

