STARLINK-37156          
1 68263U 26055B   26092.25003472 -.01150738  00000+0 -54005-2 0  9997
2 68263  53.1580 219.2358 0000855  80.1892  64.7025 15.84845630  3422
STARLINK-37163          
1 68264U 26055C   26092.25003472 -.01169249  00000+0 -54820-2 0  9990
2 68264  53.1581 219.2173 0000830  80.4683  72.8976 15.84904550  3425
STARLINK-37133          
1 68265U 26055D   26092.25003472 -.01157700  00000+0 -54313-2 0  9997
2 68265  53.1581 219.2264 0000834  80.9874  68.1784 15.84867313  3428
STARLINK-37042          
1 68266U 26055E   26092.25003472 -.01175453  00000+0 -55242-2 0  9995
2 68266  53.1579 219.2080 0000917  76.5080  81.5424 15.84867685  3426
STARLINK-37103          
1 68267U 26055F   26092.25003472 -.01182786  00000+0 -55609-2 0  9990
2 68267  53.1583 219.1988 0000911  78.6336  83.8241 15.84874895  3422
STARLINK-36999          
1 68268U 26055G   26092.25003472 -.01190942  00000+0 -55935-2 0  9996
2 68268  53.1580 219.1900 0000905  79.1296  87.5630 15.84913218  3424
STARLINK-36962          
1 68269U 26055H   26092.25003472 -.01227835  00000+0 -57773-2 0  9991
2 68269  53.1580 219.1810 0000972  77.1040  93.9229 15.84952897  3425
STARLINK-37028          
1 68270U 26055J   26092.25003472 -.01342147  00000+0 -64633-2 0  9990
2 68270  53.1581 219.1592 0000856  88.1907  93.1082 15.84722583  3426
STARLINK-37029          
1 68271U 26055K   26092.25003472 -.01347833  00000+0 -64875-2 0  9996
2 68271  53.1580 219.1688 0000951  81.4067  95.4884 15.84744003  3427
STARLINK-36974          
1 68272U 26055L   26092.25003472 -.01375210  00000+0 -66744-2 0  9994
2 68272  53.1580 219.1494 0000871  79.9111 106.1954 15.84634695  3429
STARLINK-37019          
1 68273U 26055M   26092.25003472 -.01376206  00000+0 -66719-2 0  9993
2 68273  53.1581 219.1401 0000924  73.2516 117.0374 15.84658715  3420
STARLINK-37129          
1 68274U 26055N   26092.25003472 -.01390779  00000+0 -67548-2 0  9996
2 68274  53.1579 219.1312 0000950  81.2329 113.4395 15.84653582  3429
